[
  {"id": 1, "city_id": 1, "name_en": "District 1", "name_vi": "Quận 1", "district_type": "urban"},
  {"id": 2, "city_id": 1, "name_en": "District 2", "name_vi": "Quận 2", "district_type": "urban"},
  {"id": 3, "city_id": 1, "name_en": "District 3", "name_vi": "Quận 3", "district_type": "urban"},
  {"id": 4, "city_id": 1, "name_en": "District 4", "name_vi": "Quận 4", "district_type": "urban"},
  {"id": 5, "city_id": 1, "name_en": "District 7", "name_vi": "Quận 7", "district_type": "urban"},
  {"id": 6, "city_id": 1, "name_en": "District 9", "name_vi": "Quận 9", "district_type": "suburban"},
  {"id": 7, "city_id": 1, "name_en": "Binh Thanh", "name_vi": "Bình Thạnh", "district_type": "urban"},
  {"id": 8, "city_id": 1, "name_en": "Thu Duc", "name_vi": "Thủ Đức", "district_type": "urban"},
  {"id": 9, "city_id": 1, "name_en": "Tan Binh", "name_vi": "Tân Bình", "district_type": "urban"},
  {"id": 10, "city_id": 1, "name_en": "Phu Nhuan", "name_vi": "Phú Nhuận", "district_type": "urban"},
  {"id": 11, "city_id": 1, "name_en": "Go Vap", "name_vi": "Gò Vấp", "district_type": "urban"},
  {"id": 12, "city_id": 1, "name_en": "Binh Chanh", "name_vi": "Bình Chánh", "district_type": "suburban"},
  {"id": 13, "city_id": 1, "name_en": "Nha Be", "name_vi": "Nhà Bè", "district_type": "suburban"},
  {"id": 14, "city_id": 1, "name_en": "Cu Chi", "name_vi": "Củ Chi", "district_type": "suburban"},
  {"id": 15, "city_id": 1, "name_en": "Hoc Mon", "name_vi": "Hóc Môn", "district_type": "suburban"},
  {"id": 16, "city_id": 1, "name_en": "Tan Phu", "name_vi": "Tân Phú", "district_type": "urban"},
  {"id": 17, "city_id": 1, "name_en": "District 5", "name_vi": "Quận 5", "district_type": "urban"},
  {"id": 18, "city_id": 1, "name_en": "District 6", "name_vi": "Quận 6", "district_type": "urban"},
  {"id": 19, "city_id": 1, "name_en": "District 8", "name_vi": "Quận 8", "district_type": "urban"},
  {"id": 20, "city_id": 1, "name_en": "District 10", "name_vi": "Quận 10", "district_type": "urban"},
  {"id": 21, "city_id": 1, "name_en": "District 11", "name_vi": "Quận 11", "district_type": "urban"},
  {"id": 22, "city_id": 1, "name_en": "District 12", "name_vi": "Quận 12", "district_type": "suburban"},

  {"id": 23, "city_id": 2, "name_en": "Hoan Kiem", "name_vi": "Hoàn Kiếm", "district_type": "urban"},
  {"id": 24, "city_id": 2, "name_en": "Ba Dinh", "name_vi": "Ba Đình", "district_type": "urban"},
  {"id": 25, "city_id": 2, "name_en": "Dong Da", "name_vi": "Đống Đa", "district_type": "urban"},
  {"id": 26, "city_id": 2, "name_en": "Hai Ba Trung", "name_vi": "Hai Bà Trưng", "district_type": "urban"},
  {"id": 27, "city_id": 2, "name_en": "Tay Ho", "name_vi": "Tây Hồ", "district_type": "urban"},
  {"id": 28, "city_id": 2, "name_en": "Cau Giay", "name_vi": "Cầu Giấy", "district_type": "urban"},
  {"id": 29, "city_id": 2, "name_en": "Thanh Xuan", "name_vi": "Thanh Xuân", "district_type": "urban"},
  {"id": 30, "city_id": 2, "name_en": "Long Bien", "name_vi": "Long Biên", "district_type": "urban"},
  {"id": 31, "city_id": 2, "name_en": "Nam Tu Liem", "name_vi": "Nam Từ Liêm", "district_type": "urban"},
  {"id": 32, "city_id": 2, "name_en": "Bac Tu Liem", "name_vi": "Bắc Từ Liêm", "district_type": "urban"},
  {"id": 33, "city_id": 2, "name_en": "Ha Dong", "name_vi": "Hà Đông", "district_type": "suburban"},
  {"id": 34, "city_id": 2, "name_en": "Hoang Mai", "name_vi": "Hoàng Mai", "district_type": "urban"},
  {"id": 35, "city_id": 2, "name_en": "Dong Anh", "name_vi": "Đông Anh", "district_type": "suburban"},
  {"id": 36, "city_id": 2, "name_en": "Gia Lam", "name_vi": "Gia Lâm", "district_type": "suburban"},

  {"id": 37, "city_id": 3, "name_en": "Thu Dau Mot", "name_vi": "Thủ Dầu Một", "district_type": "urban"},
  {"id": 38, "city_id": 3, "name_en": "Di An", "name_vi": "Dĩ An", "district_type": "urban"},
  {"id": 39, "city_id": 3, "name_en": "Thuan An", "name_vi": "Thuận An", "district_type": "urban"},
  {"id": 40, "city_id": 3, "name_en": "Ben Cat", "name_vi": "Bến Cát", "district_type": "suburban"},
  {"id": 41, "city_id": 3, "name_en": "Tan Uyen", "name_vi": "Tân Uyên", "district_type": "suburban"},
  {"id": 42, "city_id": 3, "name_en": "Bau Bang", "name_vi": "Bàu Bàng", "district_type": "suburban"},

  {"id": 43, "city_id": 4, "name_en": "Vung Tau", "name_vi": "Vũng Tàu", "district_type": "urban"},
  {"id": 44, "city_id": 5, "name_en": "Nhon Trach", "name_vi": "Nhơn Trạch", "district_type": "suburban"},
  {"id": 45, "city_id": 6, "name_en": "Quy Nhon", "name_vi": "Quy Nhơn", "district_type": "urban"}
]
