[
  {"id": 1, "district_id": 2, "name_en": "Thao Dien", "name_vi": "Thảo Điền"},
  {"id": 2, "district_id": 2, "name_en": "An Phu", "name_vi": "An Phú"},
  {"id": 3, "district_id": 2, "name_en": "Thu Thiem", "name_vi": "Thủ Thiêm"},
  {"id": 4, "district_id": 2, "name_en": "Binh Khanh", "name_vi": "Bình Khánh"},
  {"id": 5, "district_id": 2, "name_en": "An Loi Dong", "name_vi": "An Lợi Đông"},
  {"id": 6, "district_id": 5, "name_en": "Tan Phong", "name_vi": "Tân Phong"},
  {"id": 7, "district_id": 5, "name_en": "Tan Phu", "name_vi": "Tân Phú"},
  {"id": 8, "district_id": 6, "name_en": "Long Thanh My", "name_vi": "Long Thạnh Mỹ"},
  {"id": 9, "district_id": 6, "name_en": "Long Binh", "name_vi": "Long Bình"},
  {"id": 10, "district_id": 7, "name_en": "Binh An", "name_vi": "Bình An"},
  {"id": 11, "district_id": 8, "name_en": "Hiep Binh Chanh", "name_vi": "Hiệp Bình Chánh"},
  {"id": 12, "district_id": 8, "name_en": "Binh Tho", "name_vi": "Bình Thọ"},
  {"id": 13, "district_id": 12, "name_en": "Vinh Loc A", "name_vi": "Vĩnh Lộc A"},
  {"id": 14, "district_id": 12, "name_en": "Binh Hung", "name_vi": "Bình Hưng"},
  {"id": 15, "district_id": 27, "name_en": "Quang An", "name_vi": "Quảng An"},
  {"id": 16, "district_id": 27, "name_en": "Xuan La", "name_vi": "Xuân La"},
  {"id": 17, "district_id": 28, "name_en": "Dich Vong Hau", "name_vi": "Dịch Vọng Hậu"},
  {"id": 18, "district_id": 31, "name_en": "Me Tri", "name_vi": "Mễ Trì"},
  {"id": 19, "district_id": 31, "name_en": "Dai Mo", "name_vi": "Đại Mỗ"},
  {"id": 20, "district_id": 36, "name_en": "Duong Xa", "name_vi": "Dương Xá"},
  {"id": 21, "district_id": 35, "name_en": "Co Loa", "name_vi": "Cổ Loa"},
  {"id": 22, "district_id": 25, "name_en": "Nam Dong", "name_vi": "Nam Đồng"},
  {"id": 23, "district_id": 26, "name_en": "Thanh Nhan", "name_vi": "Thanh Nhàn"},
  {"id": 24, "district_id": 29, "name_en": "Nhan Chinh", "name_vi": "Nhân Chính"},
  {"id": 25, "district_id": 39, "name_en": "Binh Hoa", "name_vi": "Bình Hòa"},
  {"id": 26, "district_id": 38, "name_en": "Dong Hoa", "name_vi": "Đông Hòa"},
  {"id": 27, "district_id": 37, "name_en": "Phu Hoa", "name_vi": "Phú Hòa"},
  {"id": 28, "district_id": 34, "name_en": "Hoang Van Thu", "name_vi": "Hoàng Văn Thụ"}
]
